ONEWEB-0211             
1 48767U 21045A   26178.30158808  .00000036  00000+0  60605-4 0  9990
2 48767  87.9004 257.0649 0002264 117.4909 242.6452 13.16197571245771
ONEWEB-0223             
1 48768U 21045B   26178.23283369  .00000009  00000+0 -11013-4 0  9994
2 48768  87.9011 257.1897 0001956 112.2266 247.9072 13.15550586245721
ONEWEB-0230             
1 48769U 21045C   26178.28037190  .00000104  00000+0  24232-3 0  9990
2 48769  87.8994 257.1929 0001959  95.6479 264.4874 13.15548928245990
ONEWEB-0237             
1 48770U 21045D   26178.26927814 -.00000039  00000+0 -13846-3 0  9999
2 48770  87.8995 257.1970 0001825 105.8106 254.3226 13.15547815245715
ONEWEB-0235             
1 48771U 21045E   26178.24392638 -.00000066  00000+0 -20996-3 0  9992
2 48771  87.9008 257.1886 0001874 111.3726 248.7605 13.15549502245704
ONEWEB-0242             
1 48772U 21045F   26178.23758561 -.00000087  00000+0 -26646-3 0  9994
2 48772  87.9009 257.1867 0001810 101.1367 258.9967 13.15548088245749
ONEWEB-0241             
1 48773U 21045G   26178.22491016  .00000025  00000+0  32550-4 0  9995
2 48773  87.8999 257.2066 0002129 112.2916 247.8440 13.15550351245655
ONEWEB-0243             
1 48774U 21045H   26178.25659535 -.00000085  00000+0 -26047-3 0  9992
2 48774  87.8997 257.2126 0001494 104.2063 255.9234 13.15549700245689
ONEWEB-0222             
1 48775U 21045J   26178.23995511 -.00000049  00000+0 -16378-3 0  9994
2 48775  87.9009 257.1845 0002025 107.4352 252.7000 13.15550001245726
ONEWEB-0244             
1 48776U 21045K   26178.26610776  .00000049  00000+0  95554-4 0  9997
2 48776  87.9011 257.1743 0001916 102.9620 257.1724 13.15549733246298
ONEWEB-0247             
1 48777U 21045L   26178.26294147 -.00000019  00000+0 -84301-4 0  9995
2 48777  87.8997 257.2058 0001437 119.7253 240.4020 13.15548217245735
ONEWEB-0245             
1 48778U 21045M   26178.25818353 -.00000094  00000+0 -28345-3 0  9994
2 48778  87.9007 257.1868 0002094 105.4525 254.6837 13.15548972245709
ONEWEB-0229             
1 48779U 21045N   26178.25342729 -.00000161  00000+0 -46042-3 0  9993
2 48779  87.9006 257.1858 0001861 100.7192 259.4148 13.15549317245732
ONEWEB-0228             
1 48780U 21045P   26178.28684632  .00000050  00000+0  99835-4 0  9994
2 48780  87.9013 257.1724 0001958 101.4015 258.7336 13.15547616245655
ONEWEB-0232             
1 48781U 21045Q   26178.26135081 -.00000089  00000+0 -27060-3 0  9996
2 48781  87.9011 257.1781 0002081 101.5495 258.5869 13.15546961245974
ONEWEB-0231             
1 48782U 21045R   26178.23916395 -.00000125  00000+0 -36645-3 0  9999
2 48782  87.9005 257.1948 0001932 106.8759 253.2584 13.15549571245660
ONEWEB-0234             
1 48783U 21045S   26178.27705786  .00000094  00000+0  21479-3 0  9996
2 48783  87.9003 257.1692 0002843 101.5096 258.6354 13.15549613245800
ONEWEB-0238             
1 48784U 21045T   26178.27733843  .00000108  00000+0  25253-3 0  9992
2 48784  87.9008 257.1643 0002444 101.8128 258.3277 13.15547883245705
ONEWEB-0240             
1 48785U 21045U   26178.29859181  .00000089  00000+0  20111-3 0  9995
2 48785  87.9010 257.1699 0002089 109.3381 250.7976 13.15548846245734
ONEWEB-0246             
1 48786U 21045V   26178.21698349  .00000045  00000+0  86746-4 0  9994
2 48786  87.9008 257.1905 0001873 100.0178 260.1164 13.15550189245595
ONEWEB-0210             
1 48787U 21045W   26178.26768406  .00000032  00000+0  52025-4 0  9991
2 48787  87.9007 257.1772 0001162 108.7142 251.4115 13.15547092245648
ONEWEB-0214             
1 48788U 21045X   26178.27639851  .00000081  00000+0  18098-3 0  9999
2 48788  87.9009 257.1726 0001688  93.2299 266.9025 13.15549836245610
ONEWEB-0221             
1 48789U 21045Y   26178.28354070  .00000128  00000+0  30548-3 0  9994
2 48789  87.9006 257.1798 0001958 105.7096 254.4251 13.15549049245700
ONEWEB-0213             
1 48790U 21045Z   26178.27244665  .00000101  00000+0  23550-3 0  9999
2 48790  87.9005 257.1851 0001805 106.7439 253.3889 13.15548018245760
ONEWEB-0212             
1 48791U 21045AA  26178.24944892 -.00000115  00000+0 -34060-3 0  9991
2 48791  87.9009 257.1843 0002079 100.2433 259.8932 13.15551241245754
ONEWEB-0227             
1 48792U 21045AB  26178.24867404 -.00000093  00000+0 -28108-3 0  9996
2 48792  87.9007 257.1850 0002026 102.8998 257.2358 13.15549913245709
ONEWEB-0226             
1 48793U 21045AC  26178.24232580 -.00000074  00000+0 -23139-3 0  9996
2 48793  87.9003 257.1904 0001776 103.3328 256.8001 13.15547521245679
ONEWEB-0224             
1 48794U 21045AD  26178.28195622  .00000124  00000+0  29436-3 0  9996
2 48794  87.8998 257.2161 0002707 114.1859 245.9554 13.15547752245603
ONEWEB-0233             
1 48795U 21045AE  26178.28668696 -.00015616  00000+0 -41659-1 0  9996
2 48795  87.8999 257.2227 0001566 108.4647 251.6654 13.15430619245621
ONEWEB-0190             
1 48796U 21045AF  26178.27402987  .00000084  00000+0  18885-3 0  9993
2 48796  87.9000 257.1876 0001654 119.3500 240.7796 13.15547980245695
