OBJECT_NAME,OBJECT_ID,EPOCH,MEAN_MOTION,ECCENTRICITY,INCLINATION,RA_OF_ASC_NODE,ARG_OF_PERICENTER,MEAN_ANOMALY,EPHEMERIS_TYPE,CLASSIFICATION_TYPE,NORAD_CAT_ID,ELEMENT_SET_NO,REV_AT_EPOCH,BSTAR,MEAN_MOTION_DOT,MEAN_MOTION_DDOT
ONEWEB-0211,2021-045A,2026-06-27T07:14:17.210112,13.16197571,.00022649,87.9004,257.0649,117.4909,242.6452,0,U,48767,999,24577,.60605483E-4,.36E-6,0
ONEWEB-0223,2021-045B,2026-06-27T05:35:16.830816,13.15550586,.00019564,87.9011,257.1897,112.2266,247.9072,0,U,48768,999,24572,-.11013418E-4,.9E-7,0
ONEWEB-0230,2021-045C,2026-06-27T06:43:44.132160,13.15548928,.00019591,87.8994,257.1929,95.6479,264.4874,0,U,48769,999,24599,.24231711E-3,.104E-5,0
ONEWEB-0237,2021-045D,2026-06-27T06:27:45.631296,13.15547815,.00018253,87.8995,257.1970,105.8106,254.3226,0,U,48770,999,24571,-.1384596E-3,-.39E-6,0
ONEWEB-0235,2021-045E,2026-06-27T05:51:15.239232,13.15549502,.00018744,87.9008,257.1886,111.3726,248.7605,0,U,48771,999,24570,-.20996112E-3,-.66E-6,0
ONEWEB-0242,2021-045F,2026-06-27T05:42:07.396704,13.15548088,.00018103,87.9009,257.1867,101.1367,258.9967,0,U,48772,999,24574,-.26645508E-3,-.87E-6,0
ONEWEB-0241,2021-045G,2026-06-27T05:23:52.237824,13.15550351,.00021291,87.8999,257.2066,112.2916,247.8440,0,U,48773,999,24565,.32549709E-4,.25E-6,0
ONEWEB-0243,2021-045H,2026-06-27T06:09:29.838240,13.15549700,.00014948,87.8997,257.2126,104.2063,255.9234,0,U,48774,999,24568,-.26047278E-3,-.85E-6,0
ONEWEB-0222,2021-045J,2026-06-27T05:45:32.121504,13.15550001,.00020257,87.9009,257.1845,107.4352,252.7000,0,U,48775,999,24572,-.16378171E-3,-.49E-6,0
ONEWEB-0244,2021-045K,2026-06-27T06:23:11.710464,13.15549733,.00019165,87.9011,257.1743,102.9620,257.1724,0,U,48776,999,24629,.95553791E-4,.49E-6,0
ONEWEB-0247,2021-045L,2026-06-27T06:18:38.143008,13.15548217,.00014377,87.8997,257.2058,119.7253,240.4020,0,U,48777,999,24573,-.84300914E-4,-.19E-6,0
ONEWEB-0245,2021-045M,2026-06-27T06:11:47.056992,13.15548972,.00020942,87.9007,257.1868,105.4525,254.6837,0,U,48778,999,24570,-.28345138E-3,-.94E-6,0
ONEWEB-0229,2021-045N,2026-06-27T06:04:56.117856,13.15549317,.00018615,87.9006,257.1858,100.7192,259.4148,0,U,48779,999,24573,-.46041506E-3,-.161E-5,0
ONEWEB-0228,2021-045P,2026-06-27T06:53:03.522048,13.15547616,.00019588,87.9013,257.1724,101.4015,258.7336,0,U,48780,999,24565,.99835132E-4,.5E-6,0
ONEWEB-0232,2021-045Q,2026-06-27T06:16:20.709984,13.15546961,.00020815,87.9011,257.1781,101.5495,258.5869,0,U,48781,999,24597,-.27060323E-3,-.89E-6,0
ONEWEB-0231,2021-045R,2026-06-27T05:44:23.765280,13.15549571,.00019328,87.9005,257.1948,106.8759,253.2584,0,U,48782,999,24566,-.36644969E-3,-.125E-5,0
ONEWEB-0234,2021-045S,2026-06-27T06:38:57.799104,13.15549613,.00028434,87.9003,257.1692,101.5096,258.6354,0,U,48783,999,24580,.21479111E-3,.94E-6,0
ONEWEB-0238,2021-045T,2026-06-27T06:39:22.040352,13.15547883,.00024444,87.9008,257.1643,101.8128,258.3277,0,U,48784,999,24570,.2525339E-3,.108E-5,0
ONEWEB-0240,2021-045U,2026-06-27T07:09:58.332384,13.15548846,.00020898,87.9010,257.1699,109.3381,250.7976,0,U,48785,999,24573,.20111011E-3,.89E-6,0
ONEWEB-0246,2021-045V,2026-06-27T05:12:27.373536,13.15550189,.00018731,87.9008,257.1905,100.0178,260.1164,0,U,48786,999,24559,.86746304E-4,.45E-6,0
ONEWEB-0210,2021-045W,2026-06-27T06:25:27.902784,13.15547092,.0001162,87.9007,257.1772,108.7142,251.4115,0,U,48787,999,24564,.52025179E-4,.32E-6,0
ONEWEB-0214,2021-045X,2026-06-27T06:38:00.831264,13.15549836,.00016887,87.9009,257.1726,93.2299,266.9025,0,U,48788,999,24561,.18098084E-3,.81E-6,0
ONEWEB-0221,2021-045Y,2026-06-27T06:48:17.916480,13.15549049,.00019586,87.9006,257.1798,105.7096,254.4251,0,U,48789,999,24570,.30547878E-3,.128E-5,0
ONEWEB-0213,2021-045Z,2026-06-27T06:32:19.390560,13.15548018,.0001805,87.9005,257.1851,106.7439,253.3889,0,U,48790,999,24576,.23549644E-3,.101E-5,0
ONEWEB-0212,2021-045AA,2026-06-27T05:59:12.386688,13.15551241,.00020794,87.9009,257.1843,100.2433,259.8932,0,U,48791,999,24575,-.34059599E-3,-.115E-5,0
ONEWEB-0227,2021-045AB,2026-06-27T05:58:05.437056,13.15549913,.00020266,87.9007,257.1850,102.8998,257.2358,0,U,48792,999,24570,-.28108183E-3,-.93E-6,0
ONEWEB-0226,2021-045AC,2026-06-27T05:48:56.949120,13.15547521,.00017765,87.9003,257.1904,103.3328,256.8001,0,U,48793,999,24567,-.23139225E-3,-.74E-6,0
ONEWEB-0224,2021-045AD,2026-06-27T06:46:01.017408,13.15547752,.00027073,87.8998,257.2161,114.1859,245.9554,0,U,48794,999,24560,.29435571E-3,.124E-5,0
ONEWEB-0233,2021-045AE,2026-06-27T06:52:49.753344,13.15430619,.00015665,87.8999,257.2227,108.4647,251.6654,0,U,48795,999,24562,-.41658696E-1,-.15616E-3,0
ONEWEB-0190,2021-045AF,2026-06-27T06:34:36.180768,13.15547980,.00016545,87.9000,257.1876,119.3500,240.7796,0,U,48796,999,24569,.18884861E-3,.84E-6,0
